OBJECT_NAME,OBJECT_ID,EPOCH,MEAN_MOTION,ECCENTRICITY,INCLINATION,RA_OF_ASC_NODE,ARG_OF_PERICENTER,MEAN_ANOMALY,EPHEMERIS_TYPE,CLASSIFICATION_TYPE,NORAD_CAT_ID,ELEMENT_SET_NO,REV_AT_EPOCH,BSTAR,MEAN_MOTION_DOT,MEAN_MOTION_DDOT
IRIDIUM 154,2018-061F,2026-07-20T22:18:54.527328,14.34217294,.00021956,86.3935,42.6918,88.8609,271.2838,0,U,43574,999,41824,-.2092229E-5,.14E-6,0
IRIDIUM 163,2018-061G,2026-07-20T01:45:54.496224,14.34217883,.00021235,86.3935,42.9641,87.7459,272.3980,0,U,43575,999,41809,.19263388E-4,.74E-6,0
IRIDIUM 156,2018-061H,2026-07-20T19:34:30.399168,14.34217010,.00021838,86.3937,42.6613,93.6766,266.4680,0,U,43576,999,41819,.33365448E-4,.113E-5,0
IRIDIUM 164,2018-061J,2026-07-20T22:28:02.514144,14.34217363,.00022276,86.3933,42.6515,88.6067,271.5384,0,U,43577,999,41825,-.20125654E-4,-.37E-6,0
IRIDIUM 159,2018-061K,2026-07-20T20:01:54.459840,14.34217453,.00021044,86.3937,42.6302,87.0653,273.0784,0,U,43578,999,41820,-.6147545E-5,.3E-7,0
IRIDIUM 180,2019-002A,2026-07-20T21:41:38.986080,14.34217120,.00020551,86.3994,339.5040,91.3332,268.8100,0,U,43922,999,39382,-.27627326E-4,-.58E-6,0
IRIDIUM 176,2019-002B,2026-07-20T20:54:22.028256,14.72253852,.00023416,86.6119,339.4562,91.7892,268.3593,0,U,43923,999,40420,.7538035E-4,.5E-5,0
IRIDIUM 168,2019-002C,2026-07-20T21:32:31.029504,14.34218204,.00022013,86.4001,339.5845,91.4699,268.6749,0,U,43924,999,39380,.50712609E-4,.162E-5,0
IRIDIUM 173,2019-002D,2026-07-20T21:14:14.908992,14.34217747,.00020221,86.3993,339.4777,92.8813,267.2614,0,U,43925,999,39378,-.14660696E-4,-.21E-6,0
IRIDIUM 169,2019-002E,2026-07-20T22:00:45.872640,14.38605042,.00020867,86.4229,11.0874,104.6557,255.4872,0,U,43926,999,39507,.42257812E-4,.149E-5,0
IRIDIUM 172,2019-002F,2026-07-20T21:05:06.945504,14.34218083,.00021886,86.3998,339.4881,92.1119,268.0328,0,U,43927,999,39379,.15457382E-4,.63E-6,0
IRIDIUM 175,2019-002G,2026-07-20T18:06:48.698784,14.43628988,.00055191,86.4505,276.4902,104.6951,255.4862,0,U,43928,999,40382,.43420209E-4,.167E-5,0
IRIDIUM 171,2019-002H,2026-07-20T22:18:11.035296,14.34217535,.00022665,86.4007,339.7768,95.6186,264.5268,0,U,43929,999,39379,.30185809E-4,.104E-5,0
IRIDIUM 170,2019-002J,2026-07-20T21:03:14.894208,14.72254419,.00021961,86.6118,339.4557,89.2238,270.9231,0,U,43930,999,40421,.74158018E-4,.492E-5,0
IRIDIUM 167,2019-002K,2026-07-20T22:09:02.962944,14.34217539,.00022694,86.3993,339.4924,97.8715,262.2738,0,U,43931,999,39379,-.6981634E-5,0,0
IRIDIUM 181,2023-068S,2026-07-20T22:32:26.943936,14.43309127,.00023545,86.4475,42.6748,83.8844,276.2625,0,U,56726,999,16730,.53237247E-4,.199E-5,0
IRIDIUM 177,2023-068T,2026-07-20T18:55:45.507360,14.80029838,.00022365,86.1988,312.8397,97.8060,262.3414,0,U,56727,999,17133,.7449908E-4,.59E-5,0
IRIDIUM 174,2023-068U,2026-07-20T20:45:17.723808,14.72259411,.00019406,86.6125,339.6116,93.0867,267.0572,0,U,56728,999,17097,.75044625E-4,.498E-5,0
IRIDIUM 178,2023-068V,2026-07-20T21:54:40.126752,14.80022064,.00022271,86.6539,11.2646,92.5893,267.5584,0,U,56729,999,17135,.14010752E-4,.132E-5,0
IRIDIUM 179,2023-068W,2026-07-20T21:46:58.089792,14.80024352,.00023878,86.6770,20.3451,94.1648,265.9846,0,U,56730,999,17135,.20614198E-4,.182E-5,0
